[{"CCSDS_OMM_VERS":"2.0","COMMENT":"GENERATED VIA SPACE-TRACK.ORG API","CREATION_DATE":"2018-07-08T07:13:46","ORIGINATOR":"18 SPCS","OBJECT_NAME":"UPSAT","OBJECT_ID":"1998-067LX","CENTER_NAME":"EARTH","REF_FRAME":"TEME","TIME_SYSTEM":"UTC","MEAN_ELEMENT_THEORY":"SGP4","EPOCH":"2018-07-08T03:47:43.551744","MEAN_MOTION":"15.77717607","ECCENTRICITY":"0.00045130","INCLINATION":"51.6307","RA_OF_ASC_NODE":"242.4507","ARG_OF_PERICENTER":"344.2004","MEAN_ANOMALY":"15.8855","EPHEMERIS_TYPE":"0","CLASSIFICATION_TYPE":"U","NORAD_CAT_ID":"42716","ELEMENT_SET_NO":"999","REV_AT_EPOCH":"6508","BSTAR":"0.00022293000000","MEAN_MOTION_DOT":"0.00037712","MEAN_MOTION_DDOT":"0.0000000000000","SEMIMAJOR_AXIS":"6715.046","PERIOD":"91.271","APOAPSIS":"339.941","PERIAPSIS":"333.880","OBJECT_TYPE":"PAYLOAD","RCS_SIZE":"SMALL","COUNTRY_CODE":"GREC","LAUNCH_DATE":"1998-11-20","SITE":"TTMTR","DECAY_DATE":null,"FILE":"2305668","GP_ID":"121646518","TLE_LINE0":"0 UPSAT","TLE_LINE1":"1 42716U 98067LX  18189.15814296  .00037712  00000-0  22293-3 0  9994","TLE_LINE2":"2 42716  51.6307 242.4507 0004513 344.2004  15.8855 15.77717607 65087"},{"CCSDS_OMM_VERS":"2.0","COMMENT":"GENERATED VIA SPACE-TRACK.ORG API","CREATION_DATE":"2018-07-08T22:59:25","ORIGINATOR":"18 SPCS","OBJECT_NAME":"UPSAT","OBJECT_ID":"1998-067LX","CENTER_NAME":"EARTH","REF_FRAME":"TEME","TIME_SYSTEM":"UTC","MEAN_ELEMENT_THEORY":"SGP4","EPOCH":"2018-07-08T15:57:23.543712","MEAN_MOTION":"15.77754511","ECCENTRICITY":"0.00045350","INCLINATION":"51.6309","RA_OF_ASC_NODE":"239.8341","ARG_OF_PERICENTER":"346.4660","MEAN_ANOMALY":"13.6218","EPHEMERIS_TYPE":"0","CLASSIFICATION_TYPE":"U","NORAD_CAT_ID":"42716","ELEMENT_SET_NO":"999","REV_AT_EPOCH":"6516","BSTAR":"0.00020782000000","MEAN_MOTION_DOT":"0.00035159","MEAN_MOTION_DDOT":"0.0000000000000","SEMIMAJOR_AXIS":"6714.941","PERIOD":"91.268","APOAPSIS":"339.851","PERIAPSIS":"333.761","OBJECT_TYPE":"PAYLOAD","RCS_SIZE":"SMALL","COUNTRY_CODE":"GREC","LAUNCH_DATE":"1998-11-20","SITE":"TTMTR","DECAY_DATE":null,"FILE":"2305922","GP_ID":"121651566","TLE_LINE0":"0 UPSAT","TLE_LINE1":"1 42716U 98067LX  18189.66485583  .00035159  00000-0  20782-3 0  9997","TLE_LINE2":"2 42716  51.6309 239.8341 0004535 346.4660  13.6218 15.77754511 65164"},{"CCSDS_OMM_VERS":"2.0","COMMENT":"GENERATED VIA SPACE-TRACK.ORG API","CREATION_DATE":"2018-07-09T07:13:10","ORIGINATOR":"18 SPCS","OBJECT_NAME":"UPSAT","OBJECT_ID":"1998-067LX","CENTER_NAME":"EARTH","REF_FRAME":"TEME","TIME_SYSTEM":"UTC","MEAN_ELEMENT_THEORY":"SGP4","EPOCH":"2018-07-09T04:07:02.476416","MEAN_MOTION":"15.77792968","ECCENTRICITY":"0.00045260","INCLINATION":"51.6307","RA_OF_ASC_NODE":"237.2171","ARG_OF_PERICENTER":"348.5492","MEAN_ANOMALY":"11.5405","EPHEMERIS_TYPE":"0","CLASSIFICATION_TYPE":"U","NORAD_CAT_ID":"42716","ELEMENT_SET_NO":"999","REV_AT_EPOCH":"6524","BSTAR":"0.00021469000000","MEAN_MOTION_DOT":"0.00036412","MEAN_MOTION_DDOT":"0.0000000000000","SEMIMAJOR_AXIS":"6714.832","PERIOD":"91.266","APOAPSIS":"339.736","PERIAPSIS":"333.658","OBJECT_TYPE":"PAYLOAD","RCS_SIZE":"SMALL","COUNTRY_CODE":"GREC","LAUNCH_DATE":"1998-11-20","SITE":"TTMTR","DECAY_DATE":null,"FILE":"2306057","GP_ID":"121664309","TLE_LINE0":"0 UPSAT","TLE_LINE1":"1 42716U 98067LX  18190.17155644  .00036412  00000-0  21469-3 0  9993","TLE_LINE2":"2 42716  51.6307 237.2171 0004526 348.5492  11.5405 15.77792968 65243"},{"CCSDS_OMM_VERS":"2.0","COMMENT":"GENERATED VIA SPACE-TRACK.ORG API","CREATION_DATE":"2018-07-09T15:07:53","ORIGINATOR":"18 SPCS","OBJECT_NAME":"UPSAT","OBJECT_ID":"1998-067LX","CENTER_NAME":"EARTH","REF_FRAME":"TEME","TIME_SYSTEM":"UTC","MEAN_ELEMENT_THEORY":"SGP4","EPOCH":"2018-07-09T08:40:39.331776","MEAN_MOTION":"15.77804326","ECCENTRICITY":"0.00045210","INCLINATION":"51.6308","RA_OF_ASC_NODE":"236.2360","ARG_OF_PERICENTER":"349.3122","MEAN_ANOMALY":"10.7782","EPHEMERIS_TYPE":"0","CLASSIFICATION_TYPE":"U","NORAD_CAT_ID":"42716","ELEMENT_SET_NO":"999","REV_AT_EPOCH":"6527","BSTAR":"0.00020492000000","MEAN_MOTION_DOT":"0.00034735","MEAN_MOTION_DDOT":"0.0000000000000","SEMIMAJOR_AXIS":"6714.799","PERIOD":"91.266","APOAPSIS":"339.700","PERIAPSIS":"333.629","OBJECT_TYPE":"PAYLOAD","RCS_SIZE":"SMALL","COUNTRY_CODE":"GREC","LAUNCH_DATE":"1998-11-20","SITE":"TTMTR","DECAY_DATE":null,"FILE":"2306234","GP_ID":"121667637","TLE_LINE0":"0 UPSAT","TLE_LINE1":"1 42716U 98067LX  18190.36156634  .00034735  00000-0  20492-3 0  9995","TLE_LINE2":"2 42716  51.6308 236.2360 0004521 349.3122  10.7782 15.77804326 65271"},{"CCSDS_OMM_VERS":"2.0","COMMENT":"GENERATED VIA SPACE-TRACK.ORG API","CREATION_DATE":"2018-07-09T23:09:39","ORIGINATOR":"18 SPCS","OBJECT_NAME":"UPSAT","OBJECT_ID":"1998-067LX","CENTER_NAME":"EARTH","REF_FRAME":"TEME","TIME_SYSTEM":"UTC","MEAN_ELEMENT_THEORY":"SGP4","EPOCH":"2018-07-09T13:14:16.051488","MEAN_MOTION":"15.77817415","ECCENTRICITY":"0.00047040","INCLINATION":"51.6303","RA_OF_ASC_NODE":"235.2543","ARG_OF_PERICENTER":"349.2285","MEAN_ANOMALY":"10.8614","EPHEMERIS_TYPE":"0","CLASSIFICATION_TYPE":"U","NORAD_CAT_ID":"42716","ELEMENT_SET_NO":"999","REV_AT_EPOCH":"6530","BSTAR":"0.00020058000000","MEAN_MOTION_DOT":"0.00034004","MEAN_MOTION_DDOT":"0.0000000000000","SEMIMAJOR_AXIS":"6714.762","PERIOD":"91.265","APOAPSIS":"339.786","PERIAPSIS":"333.469","OBJECT_TYPE":"PAYLOAD","RCS_SIZE":"SMALL","COUNTRY_CODE":"GREC","LAUNCH_DATE":"1998-11-20","SITE":"TTMTR","DECAY_DATE":null,"FILE":"2306391","GP_ID":"121679103","TLE_LINE0":"0 UPSAT","TLE_LINE1":"1 42716U 98067LX  18190.55157467  .00034004  00000-0  20058-3 0  9998","TLE_LINE2":"2 42716  51.6303 235.2543 0004704 349.2285  10.8614 15.77817415 65302"},{"CCSDS_OMM_VERS":"2.0","COMMENT":"GENERATED VIA SPACE-TRACK.ORG API","CREATION_DATE":"2018-07-09T21:48:46","ORIGINATOR":"18 SPCS","OBJECT_NAME":"UPSAT","OBJECT_ID":"1998-067LX","CENTER_NAME":"EARTH","REF_FRAME":"TEME","TIME_SYSTEM":"UTC","MEAN_ELEMENT_THEORY":"SGP4","EPOCH":"2018-07-09T13:14:16.051488","MEAN_MOTION":"15.77817415","ECCENTRICITY":"0.00047040","INCLINATION":"51.6303","RA_OF_ASC_NODE":"235.2543","ARG_OF_PERICENTER":"349.2285","MEAN_ANOMALY":"10.8614","EPHEMERIS_TYPE":"0","CLASSIFICATION_TYPE":"U","NORAD_CAT_ID":"42716","ELEMENT_SET_NO":"999","REV_AT_EPOCH":"6530","BSTAR":"0.00020058000000","MEAN_MOTION_DOT":"0.00034004","MEAN_MOTION_DDOT":"0.0000000000000","SEMIMAJOR_AXIS":"6714.762","PERIOD":"91.265","APOAPSIS":"339.786","PERIAPSIS":"333.469","OBJECT_TYPE":"PAYLOAD","RCS_SIZE":"SMALL","COUNTRY_CODE":"GREC","LAUNCH_DATE":"1998-11-20","SITE":"TTMTR","DECAY_DATE":null,"FILE":"2306307","GP_ID":"121676903","TLE_LINE0":"0 UPSAT","TLE_LINE1":"1 42716U 98067LX  18190.55157467 +.00034004 +00000-0 +20058-3 0  9998","TLE_LINE2":"2 42716 051.6303 235.2543 0004704 349.2285 010.8614 15.77817415065302"},{"CCSDS_OMM_VERS":"2.0","COMMENT":"GENERATED VIA SPACE-TRACK.ORG API","CREATION_DATE":"2018-07-10T07:12:13","ORIGINATOR":"18 SPCS","OBJECT_NAME":"UPSAT","OBJECT_ID":"1998-067LX","CENTER_NAME":"EARTH","REF_FRAME":"TEME","TIME_SYSTEM":"UTC","MEAN_ELEMENT_THEORY":"SGP4","EPOCH":"2018-07-10T02:55:05.374272","MEAN_MOTION":"15.77859809","ECCENTRICITY":"0.00047380","INCLINATION":"51.6303","RA_OF_ASC_NODE":"232.3102","ARG_OF_PERICENTER":"352.1478","MEAN_ANOMALY":"7.9447","EPHEMERIS_TYPE":"0","CLASSIFICATION_TYPE":"U","NORAD_CAT_ID":"42716","ELEMENT_SET_NO":"999","REV_AT_EPOCH":"6539","BSTAR":"0.00021486000000","MEAN_MOTION_DOT":"0.00036554","MEAN_MOTION_DDOT":"0.0000000000000","SEMIMAJOR_AXIS":"6714.642","PERIOD":"91.262","APOAPSIS":"339.688","PERIAPSIS":"333.326","OBJECT_TYPE":"PAYLOAD","RCS_SIZE":"SMALL","COUNTRY_CODE":"GREC","LAUNCH_DATE":"1998-11-20","SITE":"TTMTR","DECAY_DATE":null,"FILE":"2306539","GP_ID":"121688981","TLE_LINE0":"0 UPSAT","TLE_LINE1":"1 42716U 98067LX  18191.12158998  .00036554  00000-0  21486-3 0  9990","TLE_LINE2":"2 42716  51.6303 232.3102 0004738 352.1478   7.9447 15.77859809 65398"},{"CCSDS_OMM_VERS":"2.0","COMMENT":"GENERATED VIA SPACE-TRACK.ORG API","CREATION_DATE":"2018-07-10T15:13:53","ORIGINATOR":"18 SPCS","OBJECT_NAME":"UPSAT","OBJECT_ID":"1998-067LX","CENTER_NAME":"EARTH","REF_FRAME":"TEME","TIME_SYSTEM":"UTC","MEAN_ELEMENT_THEORY":"SGP4","EPOCH":"2018-07-10T12:02:17.538432","MEAN_MOTION":"15.77885546","ECCENTRICITY":"0.00047660","INCLINATION":"51.6303","RA_OF_ASC_NODE":"230.3478","ARG_OF_PERICENTER":"353.8779","MEAN_ANOMALY":"6.2163","EPHEMERIS_TYPE":"0","CLASSIFICATION_TYPE":"U","NORAD_CAT_ID":"42716","ELEMENT_SET_NO":"999","REV_AT_EPOCH":"6545","BSTAR":"0.00020937000000","MEAN_MOTION_DOT":"0.00035641","MEAN_MOTION_DDOT":"0.0000000000000","SEMIMAJOR_AXIS":"6714.569","PERIOD":"91.261","APOAPSIS":"339.634","PERIAPSIS":"333.234","OBJECT_TYPE":"PAYLOAD","RCS_SIZE":"SMALL","COUNTRY_CODE":"GREC","LAUNCH_DATE":"1998-11-20","SITE":"TTMTR","DECAY_DATE":null,"FILE":"2306714","GP_ID":"121692414","TLE_LINE0":"0 UPSAT","TLE_LINE1":"1 42716U 98067LX  18191.50159188  .00035641  00000-0  20937-3 0  9990","TLE_LINE2":"2 42716  51.6303 230.3478 0004766 353.8779   6.2163 15.77885546 65456"}]